{
    "links": {
        "self": "http://www.neowsapp.com/rest/v1/neo/3389487?api_key=iIulBulltgU6a56xZRHN4H3l9WmuAYTsLGpBGhQ2"
    },
    "id": "3389487",
    "neo_reference_id": "3389487",
    "name": "(2007 UO6)",
    "designation": "2007 UO6",
    "nasa_jpl_url": "http://ssd.jpl.nasa.gov/sbdb.cgi?sstr=3389487",
    "absolute_magnitude_h": 27.3,
    "estimated_diameter": {
        "kilometers": {
            "estimated_diameter_min": 0.0092162655,
            "estimated_diameter_max": 0.0206081961
        },
        "meters": {
            "estimated_diameter_min": 9.216265485,
            "estimated_diameter_max": 20.6081961232
        },
        "miles": {
            "estimated_diameter_min": 0.0057267201,
            "estimated_diameter_max": 0.0128053354
        },
        "feet": {
            "estimated_diameter_min": 30.2370924539,
            "estimated_diameter_max": 67.6121941689
        }
    },
    "is_potentially_hazardous_asteroid": false,
    "close_approach_data": [
        {
            "close_approach_date": "2007-10-17",
            "close_approach_date_full": "2007-Oct-17 07:30",
            "epoch_date_close_approach": 1192606200000,
            "relative_velocity": {
                "kilometers_per_second": "11.3416564761",
                "kilometers_per_hour": "40829.9633138311",
                "miles_per_hour": "25370.151371308"
            },
            "miss_distance": {
                "astronomical": "0.0009018125",
                "lunar": "0.3508050625",
                "kilometers": "134909.229139375",
                "miles": "83828.707798375"
            },
            "orbiting_body": "Moon"
        },
        {
            "close_approach_date": "2007-10-17",
            "close_approach_date_full": "2007-Oct-17 14:52",
            "epoch_date_close_approach": 1192632720000,
            "relative_velocity": {
                "kilometers_per_second": "11.9424993582",
                "kilometers_per_hour": "42992.9976893645",
                "miles_per_hour": "26714.1768142609"
            },
            "miss_distance": {
                "astronomical": "0.0024541391",
                "lunar": "0.9546601099",
                "kilometers": "367133.982043717",
                "miles": "228126.4780766146"
            },
            "orbiting_body": "Earth"
        }
    ],
    "orbital_data": {
        "orbit_id": "6",
        "orbit_determination_date": "2017-04-06 09:05:31",
        "first_observation_date": "2007-10-21",
        "last_observation_date": "2007-10-23",
        "data_arc_in_days": 2,
        "observations_used": 9,
        "orbit_uncertainty": "9",
        "minimum_orbit_intersection": ".000185557",
        "jupiter_tisserand_invariant": "3.344",
        "epoch_osculation": "2454395.5",
        "eccentricity": ".5996120774553733",
        "semi_major_axis": "2.275152416770126",
        "inclination": "2.3950099744487",
        "ascending_node_longitude": "23.63358731838466",
        "orbital_period": "1253.470654973539",
        "perihelion_distance": ".9109435496229774",
        "perihelion_argument": "320.1246096925799",
        "aphelion_distance": "3.639361283917274",
        "perihelion_time": "2454361.526984613324",
        "mean_anomaly": "9.757137505114986",
        "mean_motion": ".2872025751632772",
        "equinox": "J2000",
        "orbit_class": {
            "orbit_class_type": "APO",
            "orbit_class_description": "Near-Earth asteroid orbits which cross the Earth’s orbit similar to that of 1862 Apollo",
            "orbit_class_range": "a (semi-major axis) > 1.0 AU; q (perihelion) < 1.017 AU"
        }
    },
    "is_sentry_object": false
}